*******************************************************************************
 Revised: Sep 28, 2012             Phobos / (Mars)                          401

 SATELLITE PHYSICAL PROPERTIES:
  Radius (km)             = 13.1 x11.1 x9.3 Density (g cm^-3)   =  1.90 +- 0.08
  Mass (10^20 kg )        =  1.08 (10^-4)   Geometric Albedo    =  0.06 
                                 (+- 0.1)   V(1,0)              = +11.8

 SATELLITE ORBITAL DATA:
  Semi-major axis, a (km) = 9.3772(10^3)    Orbital period      = 0.319 d
  Eccentricity, e         = 0.0151          Rotational period   = Synchronous
  Inclination, i  (deg)   = 1.082
*******************************************************************************
 
 
*******************************************************************************
Ephemeris / WWW_USER Mon Mar 23 14:07:44 2020 Pasadena, USA      / Horizons    
*******************************************************************************
Target body name: Phobos (401)                    {source: mar097}
Center body name: Phobos (401)                    {source: mar097}
Center-site name: (user defined site below)
*******************************************************************************
Start time      : A.D. 2019-Sep-24 12:00:00.0000 TDB
Stop  time      : A.D. 2019-Sep-24 12:00:10.0000 TDB
Step-size       : 20 steps
*******************************************************************************
Center geodetic : 270.000000,0.00000000,7.960E-16 {W-lon(deg),Lat(deg),Alt(km)}
Center cylindric: 270.000000,13.0000000,0.0000000 {W-lon(deg),Dxy(km),Dz(km)}
Center pole/equ : IAU_PHOBOS                      {West-longitude positive}
Center radii    : 13.0 x 11.4 x 9.1 km            {Equator, meridian, pole}    
Output units    : KM-S                                                         
Output type     : GEOMETRIC cartesian states
Output format   : 3 (position, velocity, LT, range, range-rate)
Reference frame : ICRF/J2000.0                                                 
Coordinate systm: Ecliptic and Mean Equinox of Reference Epoch                 
*******************************************************************************
            JDTDB,            Calendar Date (TDB),                      X,                      Y,                      Z,                     VX,                     VY,                     VZ,                     LT,                     RG,                     RR,
**************************************************************************************************************************************************************************************************************************************************************************
$$SOE
2458751.000000000, A.D. 2019-Sep-24 12:00:00.0000, -5.769513637241273E+00, -1.149221458125129E+01,  1.908328170981680E+00,  2.356704796500291E-03, -1.389131533159533E-03, -1.240435075207153E-03,  4.336333237575977E-05,  1.300000000000000E+01,  6.672013369141566E-20,
2458751.000005787, A.D. 2019-Sep-24 12:00:00.5000, -5.768335246795851E+00, -1.149290907005748E+01,  1.907707940949874E+00,  2.356857979104371E-03, -1.388824277446338E-03, -1.240485575187655E-03,  4.336333237575977E-05,  1.300000000000000E+01, -1.334402673828313E-19,
2458751.000011574, A.D. 2019-Sep-24 12:00:01.0000, -5.767156779360795E+00, -1.149360340547062E+01,  1.907087685458407E+00,  2.357011129745338E-03, -1.388517003172441E-03, -1.240536058366018E-03,  4.336333237575977E-05,  1.300000000000000E+01,  3.336006684570783E-20,
2458751.000017361, A.D. 2019-Sep-24 12:00:01.5000, -5.765978235248732E+00, -1.149429758730657E+01,  1.906467404671826E+00,  2.357164248381915E-03, -1.388209710419166E-03, -1.240586524728520E-03,  4.336333237575977E-05,  1.300000000000000E+01,  0.000000000000000E+00,
2458751.000023148, A.D. 2019-Sep-24 12:00:02.0000, -5.764799615069297E+00, -1.149499161520658E+01,  1.905847098910976E+00,  2.357317334934919E-03, -1.387902399345647E-03, -1.240636974249081E-03,  4.336333237575977E-05,  1.300000000000000E+01, -2.668805347656626E-19,
2458751.000028935, A.D. 2019-Sep-24 12:00:02.5000, -5.763620918244518E+00, -1.149568548951126E+01,  1.905226767871631E+00,  2.357470389479642E-03, -1.387595069801476E-03, -1.240687406952566E-03,  4.336333237575977E-05,  1.300000000000000E+01,  2.668805347656626E-19,
2458751.000034722, A.D. 2019-Sep-24 12:00:03.0000, -5.762442144790169E+00, -1.149637921021148E+01,  1.904606411562095E+00,  2.357623412013810E-03, -1.387287721790818E-03, -1.240737822838199E-03,  4.336333237575977E-05,  1.300000000000000E+01, -6.672013369141566E-19,
2458751.000040509, A.D. 2019-Sep-24 12:00:03.5000, -5.761263295019032E+00, -1.149707277712339E+01,  1.903986030146954E+00,  2.357776402497031E-03, -1.386980355395523E-03, -1.240788221892724E-03,  4.336333237575977E-05,  1.300000000000000E+01, -4.003208021484940E-19,
2458751.000046297, A.D. 2019-Sep-24 12:00:04.0000, -5.760084368352961E+00, -1.149776619058729E+01,  1.903365623321933E+00,  2.357929361004109E-03, -1.386672970464897E-03, -1.240838604140755E-03,  4.336333237575977E-05,  1.300000000000000E+01, -3.669607353027861E-19,
2458751.000052083, A.D. 2019-Sep-24 12:00:04.5000, -5.758905365104694E+00, -1.149845945041931E+01,  1.902745191251617E+00,  2.358082287495066E-03, -1.386365567081026E-03, -1.240888969569256E-03,  4.336333237575977E-05,  1.300000000000000E+01, -2.001604010742470E-19,
2458751.000057871, A.D. 2019-Sep-24 12:00:05.0000, -5.757726285884130E+00, -1.149915255626114E+01,  1.902124734256923E+00,  2.358235181889981E-03, -1.386058145402616E-03, -1.240939318151755E-03,  4.336333237575977E-05,  1.300000000000000E+01, -1.000802005371235E-19,
2458751.000063657, A.D. 2019-Sep-24 12:00:05.5000, -5.756547130113026E+00, -1.149984550845296E+01,  1.901504252033563E+00,  2.358388044264261E-03, -1.385750705279317E-03, -1.240989649913185E-03,  4.336333237575977E-05,  1.300000000000000E+01,  1.668003342285392E-19,
2458751.000069445, A.D. 2019-Sep-24 12:00:06.0000, -5.755367898104292E+00, -1.150053830681114E+01,  1.900883744746153E+00,  2.358540874576936E-03, -1.385443246792642E-03, -1.241039964839984E-03,  4.336333237575977E-05,  1.300000000000000E+01, -1.334402673828313E-19,
2458751.000075231, A.D. 2019-Sep-24 12:00:06.5000, -5.754188589576669E+00, -1.150123095150113E+01,  1.900263212246688E+00,  2.358693672864867E-03, -1.385135769869678E-03, -1.241090262944384E-03,  4.336333237575977E-05,  1.300000000000000E+01, -5.671211363770331E-19,
2458751.000081019, A.D. 2019-Sep-24 12:00:07.0000, -5.753009204248835E+00, -1.150192344268824E+01,  1.899642654387131E+00,  2.358846439164890E-03, -1.384828274437494E-03, -1.241140544238603E-03,  4.336333237575977E-05,  1.300000000000000E+01, -2.668805347656626E-19,
2458751.000086806, A.D. 2019-Sep-24 12:00:07.5000, -5.751829743027951E+00, -1.150261577984003E+01,  1.899022071644792E+00,  2.358999173358465E-03, -1.384520760732176E-03, -1.241190808683432E-03,  4.336333237575977E-05,  1.300000000000000E+01, -7.339214706055723E-19,
2458751.000092593, A.D. 2019-Sep-24 12:00:08.0000, -5.750650205038455E+00, -1.150330796347070E+01,  1.898401463558967E+00,  2.359151875560012E-03, -1.384213228526226E-03, -1.241241056316744E-03,  4.336333237575978E-05,  1.300000000000000E+01,  1.334402673828313E-19,
2458751.000098380, A.D. 2019-Sep-24 12:00:08.5000, -5.749470590890445E+00, -1.150399999322235E+01,  1.897780830450643E+00,  2.359304545689909E-03, -1.383905677978520E-03, -1.241291287112228E-03,  4.336333237575976E-05,  1.300000000000000E+01, -6.672013369141566E-20,
2458751.000104167, A.D. 2019-Sep-24 12:00:09.0000, -5.748290900896984E+00, -1.150469186891172E+01,  1.897160172484508E+00,  2.359457183707259E-03, -1.383598109170608E-03, -1.241341501056363E-03,  4.336333237575977E-05,  1.300000000000000E+01,  1.334402673828313E-19,
2458751.000109954, A.D. 2019-Sep-24 12:00:09.5000, -5.747111134182323E+00, -1.150538359105264E+01,  1.896539489199802E+00,  2.359609789726410E-03, -1.383290521874949E-03, -1.241391698186988E-03,  4.336333237575977E-05,  1.300000000000000E+01, -6.672013369141565E-20,
2458751.000115741, A.D. 2019-Sep-24 12:00:10.0000, -5.745931290762234E+00, -1.150607515963586E+01,  1.895918780604803E+00,  2.359762363744858E-03, -1.382982916095583E-03, -1.241441878503201E-03,  4.336333237575977E-05,  1.300000000000000E+01,  1.334402673828313E-19,
$$EOE
**************************************************************************************************************************************************************************************************************************************************************************
Coordinate system description:

  Ecliptic and Mean Equinox of Reference Epoch

    Reference epoch: J2000.0
    XY-plane: plane of the Earth's orbit at the reference epoch
              Note: obliquity of 84381.448 arcseconds wrt ICRF equator (IAU76)
    X-axis  : out along ascending node of instantaneous plane of the Earth's
              orbit and the Earth's mean equator at the reference epoch
    Z-axis  : perpendicular to the xy-plane in the directional (+ or -) sense
              of Earth's north pole at the reference epoch.

  Symbol meaning:

    JDTDB    Julian Day Number, Barycentric Dynamical Time
      X      X-component of position vector (km)                               
      Y      Y-component of position vector (km)                               
      Z      Z-component of position vector (km)                               
      VX     X-component of velocity vector (km/sec)                           
      VY     Y-component of velocity vector (km/sec)                           
      VZ     Z-component of velocity vector (km/sec)                           
      LT     One-way down-leg Newtonian light-time (sec)                       
      RG     Range; distance from coordinate center (km)                       
      RR     Range-rate; radial velocity wrt coord. center (km/sec)            

Geometric states/elements have no aberrations applied.

 Computations by ...
     Solar System Dynamics Group, Horizons On-Line Ephemeris System
     4800 Oak Grove Drive, Jet Propulsion Laboratory
     Pasadena, CA  91109   USA
     Information: http://ssd.jpl.nasa.gov/
     Connect    : telnet://ssd.jpl.nasa.gov:6775  (via browser)
                  http://ssd.jpl.nasa.gov/?horizons
                  telnet ssd.jpl.nasa.gov 6775    (via command-line)
     Author     : Jon.D.Giorgini@jpl.nasa.gov
*******************************************************************************

!$$SOF
COMMAND = '401'
CENTER =  'coord@401'
COORD_TYPE = 'GEODETIC'
SITE_COORD = '-90,0,0'
MAKE_EPHEM = 'YES'
TABLE_TYPE = 'VECTORS'
START_TIME = '2019-09-24 12:00:00.0'
STOP_TIME = '2019-09-24 12:00:10.0'
STEP_SIZE = '20'
OUT_UNITS =  'KM-S'
VECT_TABLE =  '3'
REF_PLANE =  'ECLIPTIC'
REF_SYSTEM =  'J2000'
VECT_CORR =  'NONE'
VEC_LABELS =  'NO'
CSV_FORMAT =  'YES'
OBJ_DATA =  'YES'
